<?xml version="1.0" encoding="UTF-8"?>
<osm version="0.6" generator="ExEv example">
  <node id="1" lat="39.3430" lon="-76.5850" />
  <node id="2" lat="39.3430" lon="-76.5840" />
  <node id="3" lat="39.3430" lon="-76.5830" />
  <node id="4" lat="39.3420" lon="-76.5840" />
  <way id="100">
    <nd ref="1"/><nd ref="2"/><nd ref="3"/>
    <tag k="highway" v="residential"/>
    <tag k="lanes" v="2"/>
    <tag k="maxspeed" v="25 mph"/>
  </way>
  <way id="101">
    <nd ref="4"/><nd ref="2"/>
    <tag k="highway" v="service"/>
    <tag k="oneway" v="yes"/>
  </way>
</osm>
